[{"OBJECT_NAME":"CUAVA-2","OBJECT_ID":"2024-149BM","EPOCH":"2026-03-09T11:16:09.234912","MEAN_MOTION":15.33611708,"ECCENTRICITY":0.00056694,"INCLINATION":97.3769,"RA_OF_ASC_NODE":149.9859,"ARG_OF_PERICENTER":291.2139,"MEAN_ANOMALY":68.8497,"EPHEMERIS_TYPE":0,"CLASSIFICATION_TYPE":"U","NORAD_CAT_ID":60527,"ELEMENT_SET_NO":999,"REV_AT_EPOCH":8687,"BSTAR":0.00047570318,"MEAN_MOTION_DOT":0.000154,"MEAN_MOTION_DDOT":0},{"OBJECT_NAME":"NOAA 16 DEB","OBJECT_ID":"2000-055RJ","EPOCH":"2026-03-09T05:33:49.273920","MEAN_MOTION":15.3473827,"ECCENTRICITY":0.00201356,"INCLINATION":98.8603,"RA_OF_ASC_NODE":346.753,"ARG_OF_PERICENTER":100.321,"MEAN_ANOMALY":260.03,"EPHEMERIS_TYPE":0,"CLASSIFICATION_TYPE":"U","NORAD_CAT_ID":42366,"ELEMENT_SET_NO":999,"REV_AT_EPOCH":53004,"BSTAR":0.012036716,"MEAN_MOTION_DOT":0.00430695,"MEAN_MOTION_DDOT":0}]
